ONEWEB-0558             
1 56059U 23043P   24356.54798186 -.00000176  00000+0 -45655-3 0  9998
2 56059  87.9294 352.0926 0001293  98.1403 261.9878 13.21824925 86555
ONEWEB-0559             
1 56060U 23043Q   24356.53696051 -.00000088  00000+0 -24465-3 0  9995
2 56060  87.9294 352.0898 0001417  75.8299 284.2992 13.21826574 86566
ONEWEB-0566             
1 56061U 23043R   24357.43899876  .00000063  00000+0  12095-3 0  9993
2 56061  87.9292 351.9103 0001194  93.7573 266.3697 13.21824457 87571
ONEWEB-0568             
1 56062U 23043S   24356.46865031  .00000095  00000+0  21533-3 0  9994
2 56062  87.9084 336.8901 0002023  90.5190 269.6172 13.16597629 87566
ONEWEB-0574             
1 56063U 23043T   24357.43271048  .00000084  00000+0  17239-3 0  9998
2 56063  87.9290 351.9029 0001871  93.5757 266.5591 13.21826188 87615
ONEWEB-0575             
1 56064U 23043U   24356.46231937  .00000039  00000+0  68423-4 0  9996
2 56064  87.9086 336.9027 0002264  79.5843 280.5543 13.16595624 87555
ONEWEB-0576             
1 56065U 23043V   24356.44332065 -.00000007  00000+0 -52489-4 0  9991
2 56065  87.9082 336.8997 0002098  86.4963 273.6408 13.16592496 87548
ONEWEB-0577             
1 56066U 23043W   24356.44964934 -.00000066  00000+0 -20697-3 0  9998
2 56066  87.9086 336.8984 0002434  75.0965 285.0435 13.16595727 87579
